[{"OBJECT_NAME":"STARLINK-32577","OBJECT_ID":"2024-216N","EPOCH":"2026-03-09T22:49:36.788736","MEAN_MOTION":15.27579015,"ECCENTRICITY":0.00020997,"INCLINATION":43.0014,"RA_OF_ASC_NODE":261.9382,"ARG_OF_PERICENTER":264.7275,"MEAN_ANOMALY":95.3337,"EPHEMERIS_TYPE":0,"CLASSIFICATION_TYPE":"U","NORAD_CAT_ID":62044,"ELEMENT_SET_NO":999,"REV_AT_EPOCH":7384,"BSTAR":0.00083935522,"MEAN_MOTION_DOT":0.00022907,"MEAN_MOTION_DDOT":0},{"OBJECT_NAME":"SL-3 DEB","OBJECT_ID":"1988-032D","EPOCH":"2026-03-09T21:36:49.536576","MEAN_MOTION":15.21301321,"ECCENTRICITY":0.00302448,"INCLINATION":97.5102,"RA_OF_ASC_NODE":52.3226,"ARG_OF_PERICENTER":221.5268,"MEAN_ANOMALY":138.367,"EPHEMERIS_TYPE":0,"CLASSIFICATION_TYPE":"U","NORAD_CAT_ID":25655,"ELEMENT_SET_NO":999,"REV_AT_EPOCH":5124,"BSTAR":0.00031081119,"MEAN_MOTION_DOT":6.967e-5,"MEAN_MOTION_DDOT":0}]
